YAM-2                   
1 48911U 21059AJ  25189.47354650  .00138957  00000+0  59334-3 0  9998
2 48911  97.6656   8.2152 0002842 148.7094 211.4345 15.84808978224984
YAM-3                   
1 48915U 21059AN  25189.93205463  .00007104  00000+0  18907-3 0  9990
2 48915  97.6852 352.3415 0007414 141.8013 218.3758 15.38518942224045
FARADAY_PHOENIX         
1 48924U 21059AX  25189.92008824  .00010991  00000+0  24004-3 0  9994
2 48924  97.6862 356.9689 0009786 132.3524 227.8553 15.44337393224296
DEMO8 (TENZING)         
1 48951U 21059CA  25190.17955445  .00008740  00000+0  21409-3 0  9998
2 48951  97.6937 356.4985 0010066 147.6073 212.5793 15.40963256224256
ASTROCAST-0201          
1 48954U 21059CD  25189.95387693  .00023945  00000+0  33318-3 0  9995
2 48954  97.6545   0.5641 0005336 147.5053 212.6531 15.56956858224664
ASTROCAST-0203          
1 48955U 21059CE  25190.04116351  .00021817  00000+0  30662-3 0  9994
2 48955  97.6554   0.1843 0004784 129.9632 230.2043 15.56709439224674
ASTROCAST-0205          
1 48960U 21059CK  25189.92923960  .00025771  00000+0  35469-3 0  9990
2 48960  97.6518   0.3307 0008129 106.8723 253.3423 15.57214678224663
NAPA-2                  
1 48963U 21059CN  25190.18611825  .00014983  00000+0  29258-3 0  9999
2 48963  97.6795 354.1104 0007224 134.5943 225.5897 15.47558592224206
W-CUBE                  
1 48965U 21059CQ  25190.05297415  .00080272  00000+0  53048-3 0  9990
2 48965  97.6666   4.3307 0003485 119.0211 241.1402 15.75336292224810
JILIN-1 GAOFEN 3D01     
1 49004U 21061B   25190.17250001  .00038531  00000+0  55237-3 0  9994
2 49004  97.3461 264.5008 0009966 114.5280 245.7014 15.56008476223221
JILIN-1 GAOFEN 3D03     
1 49006U 21061D   25190.18778498  .00018708  00000+0  41657-3 0  9997
2 49006  97.3421 255.9404 0004922 246.6972 113.3759 15.43656394222673
XINGSHIDAI 10           
1 49007U 21061E   25190.22061779  .00018349  00000+0  41400-3 0  9997
2 49007  97.3414 255.9544 0004753 228.9809 131.1028 15.43268255222677
FENGYUN 3E              
1 49008U 21062A   25190.23350460 -.00000003  00000+0  19458-4 0  9996
2 49008  98.7420 192.6015 0001975  35.4556 324.6751 14.19869281207913
ISS (NAUKA)             
1 49044U 21066A   25189.85791014  .00007133  00000+0  13082-3 0  9996
2 49044  51.6334 199.6604 0002569 349.2805  10.8129 15.50441982224146
LEDSAT                  
1 49069U 21073D   25190.14890166  .00057650  00000+0  59905-3 0  9996
2 49069  97.3885 273.0003 0006883 320.2142  39.8611 15.64419074216057
STARLINK-3100           
1 49144U 21082Q   25190.16107511  .00000342  00000+0  36423-4 0  9994
2 49144  69.9991 188.4642 0003199 264.8206  95.2588 14.98337224209506
CUTE                    
1 49263U 21088D   25189.71636947  .00010927  00000+0  21146-3 0  9996
2 49263  97.4508 266.8346 0009423 131.5090 228.6970 15.47875640208934
2021-091B               
1 49316U 21091B   25190.20394939  .00002250  00000+0  11462-3 0  9997
2 49316  97.4500  18.0731 0013561 113.5244 246.7416 15.17731462206944
SDGSAT 1                
1 49387U 21100A   25190.20792403  .00002212  00000+0  10589-3 0  9991
2 49387  97.3131 243.9703 0008459  80.5963 279.6228 15.19947417203832
TEIKYOSAT-4 (OORURI)    
1 49396U 21102B   25189.81957918  .00001138  00000+0  78331-4 0  9998
2 49396  97.4087 227.1916 0013505  39.7615 320.4600 15.07742242200956
Z-SAT                   
1 49399U 21102E   25190.15181009  .00002588  00000+0  14313-3 0  9999
2 49399  97.3783 230.7917 0017981   7.3486 352.8006 15.14614954201452
HIBARI                  
1 49400U 21102F   25190.13918184  .00006096  00000+0  25897-3 0  9999
2 49400  97.3749 235.9876 0013088 342.2645  17.8133 15.23350373201822
KOSEN-1                 
1 49402U 21102H   25190.08855295  .00004046  00000+0  18717-3 0  9994
2 49402  97.3690 234.3704 0014879 341.8543  18.2160 15.20612943201773
GLOBAL-14               
1 49469U 21106A   25189.60315963  .00006721  00000+0  19826-3 0  9994
2 49469  42.0062 146.5592 0005962 184.4403 175.6383 15.35420502205081
GAOFEN-3 02             
1 49495U 21109A   25190.25193860  .00000020  00000+0  19400-4 0  9994
2 49495  98.4109 198.1687 0001476 327.6563  32.4536 14.42211894190889
GLOBAL-12               
1 49772U 21115BA  25189.85323726  .00009860  00000+0  26778-3 0  9995
2 49772  53.1980 232.1522 0000686 305.4479  54.6461 15.38247274202852
GLOBAL-13               
1 49773U 21115BB  25190.14920336  .00007988  00000+0  21901-3 0  9992
2 49773  53.1992 232.0333 0001088  79.4885 280.6242 15.38235422202884
GLOBAL-17               
1 49949U 21120A   25189.58792942  .00020001  00000+0  57962-3 0  9996
2 49949  41.9985 268.4540 0004987 304.0795  55.9570 15.35126358201810
GLOBAL-16               
1 49950U 21120B   25189.62606100  .00009139  00000+0  27479-3 0  9992
2 49950  41.9986 267.8592 0006771 296.4963  63.5180 15.34482236201818
XW-3 (CAS-9)            
1 50466U 21131B   25190.20539367  .00000314  00000+0  11194-3 0  9997
2 50466  98.5109 279.4140 0005090  58.7821 301.3866 14.40842123185715
ION SCV-004             
1 50993U 22002K   25189.87734156  .00003346  00000+0  13304-3 0  9997
2 50993  97.3351 248.9829 0009643 126.7294 233.4832 15.25941722192860
ETV-A1                  
1 51060U 22002CE  25190.16280064  .00005752  00000+0  18793-3 0  9991
2 51060  97.3375 253.6085 0007734 128.8228 231.3705 15.32103440193174
BRO-5                   
1 51061U 22002CF  25190.19233246  .00006176  00000+0  17506-3 0  9997
2 51061  97.3448 258.0285 0007909 122.4618 237.7392 15.36588802193427
VZLUSAT-2               
1 51085U 22002DF  25190.14493024  .00036920  00000+0  46682-3 0  9997
2 51085  97.3319 263.9111 0006241  98.1953 262.0011 15.59423348193889
L-SAR 01A               
1 51284U 22007A   25190.18948329  .00000491  00000+0  58791-4 0  9999
2 51284  97.8103 197.5256 0001562  90.3758 269.7638 14.88410552187455
INSPIRESAT 1            
1 51657U 22013B   25189.63552246  .00019899  00000+0  40004-3 0  9996
2 51657  97.4875 220.1412 0005308 206.2768 153.8213 15.46657423188873
L-SAR 01B               
1 51822U 22018A   25190.15586723  .00000494  00000+0  59160-4 0  9996
2 51822  97.8121 197.4795 0001742  92.7539 267.3878 14.88421186182688
2022-019D               
1 51827U 22019D   25190.16045720  .00012782  00000+0  31366-3 0  9990
2 51827  97.3947 267.9166 0007655 305.3202  54.7328 15.40804882186463
JILIN-1 GAOFEN 03D14    
1 51831U 22019H   25190.16977457  .00017396  00000+0  39976-3 0  9997
2 51831  97.3972 270.3913 0007728 288.7950  71.2459 15.42713727186625
2022-019J               
1 51832U 22019J   25190.16990648  .00001565  00000+0  79318-4 0  9991
2 51832  97.3886 256.3628 0008660 359.5826   0.5399 15.18387707185717
JILIN-1 GAOFEN 03D16    
1 51834U 22019L   25190.19690351  .00018636  00000+0  41185-3 0  9991
2 51834  97.3949 270.8847 0005090 290.5320  69.5381 15.43882582186660
JILIN-1 GAOFEN 03D11    
1 51835U 22019M   25190.18911999  .00017993  00000+0  41706-3 0  9999
2 51835  97.3983 270.6056 0004244 315.9952  44.0957 15.42468292186633
JILIN-1 GAOFEN 03D17    
1 51838U 22019Q   25190.17722189  .00147802  00000+0  75950-3 0  9993
2 51838  97.3959 280.1207 0004701 234.5660 125.5169 15.80799564187264
JILIN-1 GAOFEN 03D15    
1 51839U 22019R   25190.20983625  .00016210  00000+0  39596-3 0  9996
2 51839  97.3955 269.9282 0003639 346.6468  13.4682 15.40910295186614
JILIN-1 GAOFEN 03D10    
1 51840U 22019S   25190.20154202  .00017753  00000+0  41148-3 0  9998
2 51840  97.3961 270.7073 0001737 161.1415 198.9897 15.42479466186642
JILIN-1 GAOFEN 03D12    
1 51841U 22019T   25190.16437460  .00015958  00000+0  38968-3 0  9995
2 51841  97.3941 269.8069 0002429 260.9221  99.1750 15.40925909186609
JILIN-1 GAOFEN 03D18    
1 51844U 22019W   25190.21379036  .00017647  00000+0  41010-3 0  9997
2 51844  97.3935 269.9415 0008277 286.9934  73.0406 15.42369170186521
2022-023F               
1 51951U 22023F   25190.17789517  .00011197  24233-7  47542-3 0  9997
2 51951  63.4874 359.1842 0099452 337.8133  21.8690 15.18306452159145
CZ-4C R/B               
1 52085U 22027B   25189.90919096 -.00000048  00000+0  50074-4 0  9993
2 52085  63.3946 252.6257 0201868  24.1079 336.9246 13.65447072165161
MERIDIAN 10             
1 52145U 22030A   25189.51374308  .00000261  00000+0  00000+0 0  9997
2 52145  62.6613 176.9915 6743182 273.3590  17.7888  2.00601054 24138
OMNI-L1                 
1 52157U 22033A   25190.14691596  .00001489  00000+0  19982-3 0  9991
2 52157  97.8689 270.9123 0004630 335.5279  24.5713 14.80788825176647
ENMAP                   
1 52159U 22033C   25190.17046990  .00000302  00000+0  52418-4 0  9993
2 52159  97.9789 272.3472 0001385  94.8889 265.2478 14.75001154176087
ARCSAT-1                
1 52161U 22033E   25189.70583230  .00006089  00000+0  13521-3 0  9995
2 52161  97.2939 274.1483 0006063  23.8678 336.2850 15.44059324182548
GLOBAL-18               
1 52196U 22034B   25190.11538014  .00013717  00000+0  35491-3 0  9997
2 52196  52.9855  82.6109 0006864  46.3844 313.7727 15.39375521184079
GAOFEN-3 03             
1 52200U 22035A   25190.15540470  .00000016  00000+0  18066-4 0  9995
2 52200  98.4092 198.6432 0001562 103.8411 256.2952 14.42210476171414
DAQI 1                  
1 52257U 22039A   25190.20592376  .00000195  00000+0  52803-4 0  9994
2 52257  98.2459 129.5549 0002167 221.0827 139.0208 14.57779214171978
JILIN-1 GAOFEN 4A       
1 52388U 22046A   25190.19818823  .00034936  00000+0  58655-3 0  9993
2 52388  97.4881 289.2039 0007491 155.2677 204.8936 15.51687415177103
JILIN-1 GAOFEN 3D05     
1 52390U 22046C   25190.23395964  .00018718  00000+0  43970-3 0  9991
2 52390  97.4868 288.3329 0001452  97.8993 262.2419 15.42068002177093
JILIN-1 GAOFEN 3D07     
1 52392U 22046E   25190.23219326  .00026093  00000+0  48683-3 0  9991
2 52392  97.4960 291.6944 0000655  98.8118 261.3207 15.48777802177245
